COSMOS 2251 DEB         
1 34389U 93036QE  25326.04522987  .00001465  00000+0  45748-3 0  9999
2 34389  74.0178 288.1843 0027912  45.3776  30.9346 14.41449148877145
COSMOS 2251 DEB         
1 34396U 93036QM  25325.98860536  .00011907  00000+0  18269-2 0  9993
2 34396  74.0272 164.5360 0008585 207.8327 313.7055 14.73646621880403
COSMOS 2251 DEB         
1 34400U 93036QR  25325.66509788  .00153698  00000+0  32823-2 0  9999
2 34400  73.9706  69.6688 0009465 268.9193  91.0932 15.44157344896487
COSMOS 2251 DEB         
1 34409U 93036RA  25326.10497465  .00000789  00000+0  17095-3 0  9993
2 34409  74.0630 346.0273 0079180  66.1838 350.5740 14.57961836888923
COSMOS 2251 DEB         
1 34410U 93036RB  25325.40202222  .00056381  00000+0  28840-2 0  9990
2 34410  73.7375 307.1041 0020370 149.3407 335.4587 15.16180806894509
COSMOS 2251 DEB         
1 34412U 93036RD  25324.79131251  .00002626  00000+0  58719-3 0  9998
2 34412  73.9486   5.8764 0187623 106.3150 255.8734 14.46894147873332
COSMOS 2251 DEB         
1 34413U 93036RE  25326.04111662  .00003828  00000+0  14622-2 0  9992
2 34413  74.0311 302.4625 0089988  23.1523  41.0120 14.28844087868357
COSMOS 2251 DEB         
1 34420U 93036RM  25325.90582632  .00001145  00000+0  18813-3 0  9990
2 34420  74.0311 144.2558 0107114 270.1438 207.3363 14.68212457894644
COSMOS 2251 DEB         
1 34425U 93036RS  25326.05199875  .00003657  00000+0  73256-3 0  9997
2 34425  74.0192  94.1601 0026114 224.0682 135.8403 14.61940630884381
COSMOS 2251 DEB         
1 34429U 93036RW  25326.09487571  .00113972  00000+0  34768-2 0  9994
2 34429  73.9734 212.5902 0006386  61.9560  57.8338 15.33386672891318
COSMOS 2251 DEB         
1 34430U 93036RX  25326.04988494  .00001099  00000+0  35299-3 0  9998
2 34430  74.0513 341.5345 0059500  56.7844 303.8995 14.39545572876579
COSMOS 2251 DEB         
1 34431U 93036RY  25325.70161316  .00001376  00000+0  54305-3 0  9994
2 34431  74.0754 213.2756 0069162 204.4411 155.3455 14.28689654868429
COSMOS 2251 DEB         
1 34432U 93036RZ  25325.90743176  .00001358  00000+0  77140-3 0  9999
2 34432  73.8267 139.0243 0183576 224.8532 258.0157 14.02790811853927
COSMOS 2251 DEB         
1 34433U 93036SA  25326.09555214  .00003886  00000+0  18914-2 0  9996
2 34433  74.0101 191.4960 0151457 334.0398  25.3197 14.12699944856583
