[{
    "OBJECT_NAME": "COSMOS 2251 DEB",
    "OBJECT_ID": "1993-036QE",
    "EPOCH": "2025-11-22T01:05:07.860768",
    "MEAN_MOTION": 14.41449148,
    "ECCENTRICITY": 0.0027912,
    "INCLINATION": 74.0178,
    "RA_OF_ASC_NODE": 288.1843,
    "ARG_OF_PERICENTER": 45.3776,
    "MEAN_ANOMALY": 30.9346,
    "EPHEMERIS_TYPE": 0,
    "CLASSIFICATION_TYPE": "U",
    "NORAD_CAT_ID": 34389,
    "ELEMENT_SET_NO": 999,
    "REV_AT_EPOCH": 87714,
    "BSTAR": 0.00045748,
    "MEAN_MOTION_DOT": 1.465e-5,
    "MEAN_MOTION_DDOT": 0
},{
    "OBJECT_NAME": "COSMOS 2251 DEB",
    "OBJECT_ID": "1993-036QM",
    "EPOCH": "2025-11-21T23:43:35.503104",
    "MEAN_MOTION": 14.73646621,
    "ECCENTRICITY": 0.0008585,
    "INCLINATION": 74.0272,
    "RA_OF_ASC_NODE": 164.536,
    "ARG_OF_PERICENTER": 207.8327,
    "MEAN_ANOMALY": 313.7055,
    "EPHEMERIS_TYPE": 0,
    "CLASSIFICATION_TYPE": "U",
    "NORAD_CAT_ID": 34396,
    "ELEMENT_SET_NO": 999,
    "REV_AT_EPOCH": 88040,
    "BSTAR": 0.0018269,
    "MEAN_MOTION_DOT": 0.00011907,
    "MEAN_MOTION_DDOT": 0
},{
    "OBJECT_NAME": "COSMOS 2251 DEB",
    "OBJECT_ID": "1993-036QR",
    "EPOCH": "2025-11-21T15:57:44.456832",
    "MEAN_MOTION": 15.44157344,
    "ECCENTRICITY": 0.0009465,
    "INCLINATION": 73.9706,
    "RA_OF_ASC_NODE": 69.6688,
    "ARG_OF_PERICENTER": 268.9193,
    "MEAN_ANOMALY": 91.0932,
    "EPHEMERIS_TYPE": 0,
    "CLASSIFICATION_TYPE": "U",
    "NORAD_CAT_ID": 34400,
    "ELEMENT_SET_NO": 999,
    "REV_AT_EPOCH": 89648,
    "BSTAR": 0.0032823,
    "MEAN_MOTION_DOT": 0.00153698,
    "MEAN_MOTION_DDOT": 0
},{
    "OBJECT_NAME": "COSMOS 2251 DEB",
    "OBJECT_ID": "1993-036RA",
    "EPOCH": "2025-11-22T02:31:09.809760",
    "MEAN_MOTION": 14.57961836,
    "ECCENTRICITY": 0.007918,
    "INCLINATION": 74.063,
    "RA_OF_ASC_NODE": 346.0273,
    "ARG_OF_PERICENTER": 66.1838,
    "MEAN_ANOMALY": 350.574,
    "EPHEMERIS_TYPE": 0,
    "CLASSIFICATION_TYPE": "U",
    "NORAD_CAT_ID": 34409,
    "ELEMENT_SET_NO": 999,
    "REV_AT_EPOCH": 88892,
    "BSTAR": 0.00017095,
    "MEAN_MOTION_DOT": 7.89e-6,
    "MEAN_MOTION_DDOT": 0
},{
    "OBJECT_NAME": "COSMOS 2251 DEB",
    "OBJECT_ID": "1993-036RB",
    "EPOCH": "2025-11-21T09:38:54.719808",
    "MEAN_MOTION": 15.16180806,
    "ECCENTRICITY": 0.002037,
    "INCLINATION": 73.7375,
    "RA_OF_ASC_NODE": 307.1041,
    "ARG_OF_PERICENTER": 149.3407,
    "MEAN_ANOMALY": 335.4587,
    "EPHEMERIS_TYPE": 0,
    "CLASSIFICATION_TYPE": "U",
    "NORAD_CAT_ID": 34410,
    "ELEMENT_SET_NO": 999,
    "REV_AT_EPOCH": 89450,
    "BSTAR": 0.002884,
    "MEAN_MOTION_DOT": 0.00056381,
    "MEAN_MOTION_DDOT": 0
},{
    "OBJECT_NAME": "COSMOS 2251 DEB",
    "OBJECT_ID": "1993-036RD",
    "EPOCH": "2025-11-20T18:59:29.400864",
    "MEAN_MOTION": 14.46894147,
    "ECCENTRICITY": 0.01876231,
    "INCLINATION": 73.9486,
    "RA_OF_ASC_NODE": 5.8764,
    "ARG_OF_PERICENTER": 106.315,
    "MEAN_ANOMALY": 255.8734,
    "EPHEMERIS_TYPE": 0,
    "CLASSIFICATION_TYPE": "U",
    "NORAD_CAT_ID": 34412,
    "ELEMENT_SET_NO": 999,
    "REV_AT_EPOCH": 87333,
    "BSTAR": 0.00058718587,
    "MEAN_MOTION_DOT": 2.626e-5,
    "MEAN_MOTION_DDOT": 0
},{
    "OBJECT_NAME": "COSMOS 2251 DEB",
    "OBJECT_ID": "1993-036RE",
    "EPOCH": "2025-11-22T00:59:12.475968",
    "MEAN_MOTION": 14.28844087,
    "ECCENTRICITY": 0.0089988,
    "INCLINATION": 74.0311,
    "RA_OF_ASC_NODE": 302.4625,
    "ARG_OF_PERICENTER": 23.1523,
    "MEAN_ANOMALY": 41.012,
    "EPHEMERIS_TYPE": 0,
    "CLASSIFICATION_TYPE": "U",
    "NORAD_CAT_ID": 34413,
    "ELEMENT_SET_NO": 999,
    "REV_AT_EPOCH": 86835,
    "BSTAR": 0.0014622,
    "MEAN_MOTION_DOT": 3.828e-5,
    "MEAN_MOTION_DDOT": 0
},{
    "OBJECT_NAME": "COSMOS 2251 DEB",
    "OBJECT_ID": "1993-036RM",
    "EPOCH": "2025-11-21T21:44:23.394048",
    "MEAN_MOTION": 14.68212457,
    "ECCENTRICITY": 0.0107114,
    "INCLINATION": 74.0311,
    "RA_OF_ASC_NODE": 144.2558,
    "ARG_OF_PERICENTER": 270.1438,
    "MEAN_ANOMALY": 207.3363,
    "EPHEMERIS_TYPE": 0,
    "CLASSIFICATION_TYPE": "U",
    "NORAD_CAT_ID": 34420,
    "ELEMENT_SET_NO": 999,
    "REV_AT_EPOCH": 89464,
    "BSTAR": 0.00018813,
    "MEAN_MOTION_DOT": 1.145e-5,
    "MEAN_MOTION_DDOT": 0
},{
    "OBJECT_NAME": "COSMOS 2251 DEB",
    "OBJECT_ID": "1993-036RS",
    "EPOCH": "2025-11-22T01:14:52.692000",
    "MEAN_MOTION": 14.6194063,
    "ECCENTRICITY": 0.0026114,
    "INCLINATION": 74.0192,
    "RA_OF_ASC_NODE": 94.1601,
    "ARG_OF_PERICENTER": 224.0682,
    "MEAN_ANOMALY": 135.8403,
    "EPHEMERIS_TYPE": 0,
    "CLASSIFICATION_TYPE": "U",
    "NORAD_CAT_ID": 34425,
    "ELEMENT_SET_NO": 999,
    "REV_AT_EPOCH": 88438,
    "BSTAR": 0.00073256,
    "MEAN_MOTION_DOT": 3.657e-5,
    "MEAN_MOTION_DDOT": 0
},{
    "OBJECT_NAME": "COSMOS 2251 DEB",
    "OBJECT_ID": "1993-036RW",
    "EPOCH": "2025-11-22T02:16:37.261344",
    "MEAN_MOTION": 15.33386672,
    "ECCENTRICITY": 0.0006386,
    "INCLINATION": 73.9734,
    "RA_OF_ASC_NODE": 212.5902,
    "ARG_OF_PERICENTER": 61.956,
    "MEAN_ANOMALY": 57.8338,
    "EPHEMERIS_TYPE": 0,
    "CLASSIFICATION_TYPE": "U",
    "NORAD_CAT_ID": 34429,
    "ELEMENT_SET_NO": 999,
    "REV_AT_EPOCH": 89131,
    "BSTAR": 0.0034768,
    "MEAN_MOTION_DOT": 0.00113972,
    "MEAN_MOTION_DDOT": 0
},{
    "OBJECT_NAME": "COSMOS 2251 DEB",
    "OBJECT_ID": "1993-036RX",
    "EPOCH": "2025-11-22T01:11:50.058816",
    "MEAN_MOTION": 14.39545572,
    "ECCENTRICITY": 0.00595,
    "INCLINATION": 74.0513,
    "RA_OF_ASC_NODE": 341.5345,
    "ARG_OF_PERICENTER": 56.7844,
    "MEAN_ANOMALY": 303.8995,
    "EPHEMERIS_TYPE": 0,
    "CLASSIFICATION_TYPE": "U",
    "NORAD_CAT_ID": 34430,
    "ELEMENT_SET_NO": 999,
    "REV_AT_EPOCH": 87657,
    "BSTAR": 0.00035299,
    "MEAN_MOTION_DOT": 1.099e-5,
    "MEAN_MOTION_DDOT": 0
},{
    "OBJECT_NAME": "COSMOS 2251 DEB",
    "OBJECT_ID": "1993-036RY",
    "EPOCH": "2025-11-21T16:50:19.377024",
    "MEAN_MOTION": 14.28689654,
    "ECCENTRICITY": 0.0069162,
    "INCLINATION": 74.0754,
    "RA_OF_ASC_NODE": 213.2756,
    "ARG_OF_PERICENTER": 204.4411,
    "MEAN_ANOMALY": 155.3455,
    "EPHEMERIS_TYPE": 0,
    "CLASSIFICATION_TYPE": "U",
    "NORAD_CAT_ID": 34431,
    "ELEMENT_SET_NO": 999,
    "REV_AT_EPOCH": 86842,
    "BSTAR": 0.00054305,
    "MEAN_MOTION_DOT": 1.376e-5,
    "MEAN_MOTION_DDOT": 0
},{
    "OBJECT_NAME": "COSMOS 2251 DEB",
    "OBJECT_ID": "1993-036RZ",
    "EPOCH": "2025-11-21T21:46:42.104064",
    "MEAN_MOTION": 14.02790811,
    "ECCENTRICITY": 0.0183576,
    "INCLINATION": 73.8267,
    "RA_OF_ASC_NODE": 139.0243,
    "ARG_OF_PERICENTER": 224.8532,
    "MEAN_ANOMALY": 258.0157,
    "EPHEMERIS_TYPE": 0,
    "CLASSIFICATION_TYPE": "U",
    "NORAD_CAT_ID": 34432,
    "ELEMENT_SET_NO": 999,
    "REV_AT_EPOCH": 85392,
    "BSTAR": 0.0007714,
    "MEAN_MOTION_DOT": 1.358e-5,
    "MEAN_MOTION_DDOT": 0
},{
    "OBJECT_NAME": "COSMOS 2251 DEB",
    "OBJECT_ID": "1993-036SA",
    "EPOCH": "2025-11-22T02:17:35.704896",
    "MEAN_MOTION": 14.12699944,
    "ECCENTRICITY": 0.0151457,
    "INCLINATION": 74.0101,
    "RA_OF_ASC_NODE": 191.496,
    "ARG_OF_PERICENTER": 334.0398,
    "MEAN_ANOMALY": 25.3197,
    "EPHEMERIS_TYPE": 0,
    "CLASSIFICATION_TYPE": "U",
    "NORAD_CAT_ID": 34433,
    "ELEMENT_SET_NO": 999,
    "REV_AT_EPOCH": 85658,
    "BSTAR": 0.0018914,
    "MEAN_MOTION_DOT": 3.886e-5,
    "MEAN_MOTION_DDOT": 0
}]
